CCSDS_OMM_VERS = 2.0
CREATION_DATE  = 
ORIGINATOR     = 

OBJECT_NAME    = SL-3 R/B
OBJECT_ID      = 1988-032B
CENTER_NAME    = EARTH
REF_FRAME      = TEME
TIME_SYSTEM    = UTC
MEAN_ELEMENT_THEORY = SGP/SGP4

EPOCH          = 2026-04-03T14:47:12.685920
MEAN_MOTION    = 15.20200585
ECCENTRICITY   = .00269492
INCLINATION    = 97.5222
RA_OF_ASC_NODE = 76.7891
ARG_OF_PERICENTER = 143.7710
MEAN_ANOMALY   = 216.5357

EPHEMERIS_TYPE = 0
CLASSIFICATION_TYPE = U
NORAD_CAT_ID   = 19046
ELEMENT_SET_NO = 999
REV_AT_EPOCH   = 5589
BSTAR          = .40955744E-3
MEAN_MOTION_DOT = .8892E-4
MEAN_MOTION_DDOT = 0

CCSDS_OMM_VERS = 2.0
CREATION_DATE  = 
ORIGINATOR     = 

OBJECT_NAME    = SL-16 R/B
OBJECT_ID      = 1988-039B
CENTER_NAME    = EARTH
REF_FRAME      = TEME
TIME_SYSTEM    = UTC
MEAN_ELEMENT_THEORY = SGP/SGP4

EPOCH          = 2026-04-03T12:01:50.514240
MEAN_MOTION    = 14.19620686
ECCENTRICITY   = .00238116
INCLINATION    = 71.0174
RA_OF_ASC_NODE = 16.0831
ARG_OF_PERICENTER = 298.9136
MEAN_ANOMALY   = 60.9601

EPHEMERIS_TYPE = 0
CLASSIFICATION_TYPE = U
NORAD_CAT_ID   = 19120
ELEMENT_SET_NO = 999
REV_AT_EPOCH   = 96190
BSTAR          = -.76656E-7
MEAN_MOTION_DOT = -.48E-6
MEAN_MOTION_DDOT = 0

CCSDS_OMM_VERS = 2.0
CREATION_DATE  = 
ORIGINATOR     = 

OBJECT_NAME    = COSMOS 1953
OBJECT_ID      = 1988-050A
CENTER_NAME    = EARTH
REF_FRAME      = TEME
TIME_SYSTEM    = UTC
MEAN_ELEMENT_THEORY = SGP/SGP4

EPOCH          = 2026-04-03T13:32:47.184864
MEAN_MOTION    = 15.28927400
ECCENTRICITY   = .00119305
INCLINATION    = 82.5063
RA_OF_ASC_NODE = 133.2213
ARG_OF_PERICENTER = 44.8608
MEAN_ANOMALY   = 315.3594

EPHEMERIS_TYPE = 0
CLASSIFICATION_TYPE = U
NORAD_CAT_ID   = 19210
ELEMENT_SET_NO = 999
REV_AT_EPOCH   = 4158
BSTAR          = .42380109E-3
MEAN_MOTION_DOT = .11967E-3
MEAN_MOTION_DDOT = 0

CCSDS_OMM_VERS = 2.0
CREATION_DATE  = 
ORIGINATOR     = 

OBJECT_NAME    = SL-8 R/B
OBJECT_ID      = 1988-053B
CENTER_NAME    = EARTH
REF_FRAME      = TEME
TIME_SYSTEM    = UTC
MEAN_ELEMENT_THEORY = SGP/SGP4

EPOCH          = 2026-04-03T10:01:39.611712
MEAN_MOTION    = 14.38933378
ECCENTRICITY   = .00213811
INCLINATION    = 74.0467
RA_OF_ASC_NODE = 66.8804
ARG_OF_PERICENTER = 242.8184
MEAN_ANOMALY   = 233.3375

EPHEMERIS_TYPE = 0
CLASSIFICATION_TYPE = U
NORAD_CAT_ID   = 19257
ELEMENT_SET_NO = 999
REV_AT_EPOCH   = 98015
BSTAR          = .12814853E-3
MEAN_MOTION_DOT = .369E-5
MEAN_MOTION_DDOT = 0

CCSDS_OMM_VERS = 2.0
CREATION_DATE  = 
ORIGINATOR     = 

OBJECT_NAME    = COSMOS 1975
OBJECT_ID      = 1988-093A
CENTER_NAME    = EARTH
REF_FRAME      = TEME
TIME_SYSTEM    = UTC
MEAN_ELEMENT_THEORY = SGP/SGP4

EPOCH          = 2026-04-03T11:24:08.034336
MEAN_MOTION    = 15.28430614
ECCENTRICITY   = .00134029
INCLINATION    = 82.5158
RA_OF_ASC_NODE = 92.7910
ARG_OF_PERICENTER = 85.5341
MEAN_ANOMALY   = 274.7429

EPHEMERIS_TYPE = 0
CLASSIFICATION_TYPE = U
NORAD_CAT_ID   = 19573
ELEMENT_SET_NO = 999
REV_AT_EPOCH   = 2319
BSTAR          = .40878799E-3
MEAN_MOTION_DOT = .11377E-3
MEAN_MOTION_DDOT = 0

CCSDS_OMM_VERS = 2.0
CREATION_DATE  = 
ORIGINATOR     = 

OBJECT_NAME    = SL-14 R/B
OBJECT_ID      = 1988-093B
CENTER_NAME    = EARTH
REF_FRAME      = TEME
TIME_SYSTEM    = UTC
MEAN_ELEMENT_THEORY = SGP/SGP4

EPOCH          = 2026-04-03T12:51:32.757120
MEAN_MOTION    = 14.85688262
ECCENTRICITY   = .00196389
INCLINATION    = 82.5345
RA_OF_ASC_NODE = 18.7247
ARG_OF_PERICENTER = 319.5094
MEAN_ANOMALY   = 213.3963

EPHEMERIS_TYPE = 0
CLASSIFICATION_TYPE = U
NORAD_CAT_ID   = 19574
ELEMENT_SET_NO = 999
REV_AT_EPOCH   = 470
BSTAR          = .97041259E-4
MEAN_MOTION_DOT = .868E-5
MEAN_MOTION_DDOT = 0

CCSDS_OMM_VERS = 2.0
CREATION_DATE  = 
ORIGINATOR     = 

OBJECT_NAME    = SL-16 R/B
OBJECT_ID      = 1988-102B
CENTER_NAME    = EARTH
REF_FRAME      = TEME
TIME_SYSTEM    = UTC
MEAN_ELEMENT_THEORY = SGP/SGP4

EPOCH          = 2026-04-03T09:57:53.569440
MEAN_MOTION    = 14.16154789
ECCENTRICITY   = .00153477
INCLINATION    = 70.9970
RA_OF_ASC_NODE = 99.4705
ARG_OF_PERICENTER = 325.3693
MEAN_ANOMALY   = 34.6429

EPHEMERIS_TYPE = 0
CLASSIFICATION_TYPE = U
NORAD_CAT_ID   = 19650
ELEMENT_SET_NO = 999
REV_AT_EPOCH   = 93039
BSTAR          = .14345971E-3
MEAN_MOTION_DOT = .236E-5
MEAN_MOTION_DDOT = 0

CCSDS_OMM_VERS = 2.0
CREATION_DATE  = 
ORIGINATOR     = 

OBJECT_NAME    = INTERCOSMOS 24
OBJECT_ID      = 1989-080A
CENTER_NAME    = EARTH
REF_FRAME      = TEME
TIME_SYSTEM    = UTC
MEAN_ELEMENT_THEORY = SGP/SGP4

EPOCH          = 2026-04-03T10:14:27.451968
MEAN_MOTION    = 12.59589743
ECCENTRICITY   = .11869827
INCLINATION    = 82.6015
RA_OF_ASC_NODE = 88.2905
ARG_OF_PERICENTER = 235.3548
MEAN_ANOMALY   = 113.0029

EPHEMERIS_TYPE = 0
CLASSIFICATION_TYPE = U
NORAD_CAT_ID   = 20261
ELEMENT_SET_NO = 999
REV_AT_EPOCH   = 66991
BSTAR          = .19197499E-3
MEAN_MOTION_DOT = .651E-5
MEAN_MOTION_DDOT = 0

CCSDS_OMM_VERS = 2.0
CREATION_DATE  = 
ORIGINATOR     = 

OBJECT_NAME    = SL-14 R/B
OBJECT_ID      = 1989-080C
CENTER_NAME    = EARTH
REF_FRAME      = TEME
TIME_SYSTEM    = UTC
MEAN_ELEMENT_THEORY = SGP/SGP4

EPOCH          = 2026-04-03T14:25:54.686496
MEAN_MOTION    = 12.50518166
ECCENTRICITY   = .12309088
INCLINATION    = 82.5947
RA_OF_ASC_NODE = 157.2011
ARG_OF_PERICENTER = 127.8368
MEAN_ANOMALY   = 244.0713

EPHEMERIS_TYPE = 0
CLASSIFICATION_TYPE = U
NORAD_CAT_ID   = 20262
ELEMENT_SET_NO = 999
REV_AT_EPOCH   = 66326
BSTAR          = .16639305E-3
MEAN_MOTION_DOT = .583E-5
MEAN_MOTION_DDOT = 0

CCSDS_OMM_VERS = 2.0
CREATION_DATE  = 
ORIGINATOR     = 

OBJECT_NAME    = DELTA 1 R/B
OBJECT_ID      = 1989-089B
CENTER_NAME    = EARTH
REF_FRAME      = TEME
TIME_SYSTEM    = UTC
MEAN_ELEMENT_THEORY = SGP/SGP4

EPOCH          = 2026-04-03T12:30:03.835872
MEAN_MOTION    = 14.50685386
ECCENTRICITY   = .00702089
INCLINATION    = 97.0685
RA_OF_ASC_NODE = 297.0062
ARG_OF_PERICENTER = 45.0267
MEAN_ANOMALY   = 315.6593

EPHEMERIS_TYPE = 0
CLASSIFICATION_TYPE = U
NORAD_CAT_ID   = 20323
ELEMENT_SET_NO = 999
REV_AT_EPOCH   = 89933
BSTAR          = .15747987E-3
MEAN_MOTION_DOT = .603E-5
MEAN_MOTION_DDOT = 0

CCSDS_OMM_VERS = 2.0
CREATION_DATE  = 
ORIGINATOR     = 

OBJECT_NAME    = ARIANE 40 R/B
OBJECT_ID      = 1990-005H
CENTER_NAME    = EARTH
REF_FRAME      = TEME
TIME_SYSTEM    = UTC
MEAN_ELEMENT_THEORY = SGP/SGP4

EPOCH          = 2026-04-03T14:55:16.406688
MEAN_MOTION    = 14.39888306
ECCENTRICITY   = .0011237
INCLINATION    = 98.3031
RA_OF_ASC_NODE = 153.5339
ARG_OF_PERICENTER = 126.5619
MEAN_ANOMALY   = 233.6606

EPHEMERIS_TYPE = 0
CLASSIFICATION_TYPE = U
NORAD_CAT_ID   = 20443
ELEMENT_SET_NO = 999
REV_AT_EPOCH   = 89639
BSTAR          = .16476636E-3
MEAN_MOTION_DOT = .476E-5
MEAN_MOTION_DDOT = 0

CCSDS_OMM_VERS = 2.0
CREATION_DATE  = 
ORIGINATOR     = 

OBJECT_NAME    = DELTA 2 R/B(1)
OBJECT_ID      = 1990-008B
CENTER_NAME    = EARTH
REF_FRAME      = TEME
TIME_SYSTEM    = UTC
MEAN_ELEMENT_THEORY = SGP/SGP4

EPOCH          = 2026-04-03T12:00:11.489472
MEAN_MOTION    = 15.59465381
ECCENTRICITY   = .00764206
INCLINATION    = 35.6041
RA_OF_ASC_NODE = 11.6277
ARG_OF_PERICENTER = 132.1531
MEAN_ANOMALY   = 228.5729

EPHEMERIS_TYPE = 0
CLASSIFICATION_TYPE = U
NORAD_CAT_ID   = 20453
ELEMENT_SET_NO = 999
REV_AT_EPOCH   = 93000
BSTAR          = .97545118E-3
MEAN_MOTION_DOT = .93029E-3
MEAN_MOTION_DDOT = 0

