SL-3 R/B                
1 19046U 88032B   26093.61611905  .00008892  00000+0  40956-3 0  9993
2 19046  97.5222  76.7891 0026949 143.7710 216.5357 15.20200585 55894
SL-16 R/B               
1 19120U 88039B   26093.50127910 -.00000048  00000+0 -76656-7 0  9996
2 19120  71.0174  16.0831 0023811 298.9136  60.9601 14.19620686961907
COSMOS 1953             
1 19210U 88050A   26093.56443501  .00011967  00000+0  42380-3 0  9995
2 19210  82.5063 133.2213 0011930  44.8608 315.3594 15.28927400 41584
SL-8 R/B                
1 19257U 88053B   26093.41781958  .00000369  00000+0  12815-3 0  9998
2 19257  74.0467  66.8804 0021381 242.8184 233.3375 14.38933378980158
COSMOS 1975             
1 19573U 88093A   26093.47509299  .00011377  00000+0  40879-3 0  9997
2 19573  82.5158  92.7910 0013402  85.5341 274.7429 15.28430614 23194
SL-14 R/B               
1 19574U 88093B   26093.53579580  .00000868  00000+0  97041-4 0  9992
2 19574  82.5345  18.7247 0019638 319.5094 213.3963 14.85688262  4700
SL-16 R/B               
1 19650U 88102B   26093.41520335  .00000236  00000+0  14346-3 0  9994
2 19650  70.9970  99.4705 0015347 325.3693  34.6429 14.16154789930398
INTERCOSMOS 24          
1 20261U 89080A   26093.42670662  .00000651  00000+0  19197-3 0  9990
2 20261  82.6015  88.2905 1186982 235.3548 113.0029 12.59589743669912
SL-14 R/B               
1 20262U 89080C   26093.60132739  .00000583  00000+0  16639-3 0  9991
2 20262  82.5947 157.2011 1230908 127.8368 244.0713 12.50518166663263
DELTA 1 R/B             
1 20323U 89089B   26093.52087773  .00000603  00000+0  15748-3 0  9999
2 20323  97.0685 297.0062 0070208  45.0267 315.6593 14.50685386899334
ARIANE 40 R/B           
1 20443U 90005H   26093.62171767  .00000476  00000+0  16477-3 0  9998
2 20443  98.3031 153.5339 0011237 126.5619 233.6606 14.39888306896393
DELTA 2 R/B(1)          
1 20453U 90008B   26093.50013298  .00093029  00000+0  97545-3 0  9994
2 20453  35.6041  11.6277 0076420 132.1531 228.5729 15.59465381930008
